{
    "links": {
        "self": "http://www.neowsapp.com/rest/v1/neo/3843608?api_key=iIulBulltgU6a56xZRHN4H3l9WmuAYTsLGpBGhQ2"
    },
    "id": "3843608",
    "neo_reference_id": "3843608",
    "name": "(2019 QZ1)",
    "designation": "2019 QZ1",
    "nasa_jpl_url": "http://ssd.jpl.nasa.gov/sbdb.cgi?sstr=3843608",
    "absolute_magnitude_h": 23.3,
    "estimated_diameter": {
        "kilometers": {
            "estimated_diameter_min": 0.058150704,
            "estimated_diameter_max": 0.130028927
        },
        "meters": {
            "estimated_diameter_min": 58.1507039646,
            "estimated_diameter_max": 130.0289270043
        },
        "miles": {
            "estimated_diameter_min": 0.0361331611,
            "estimated_diameter_max": 0.0807962044
        },
        "feet": {
            "estimated_diameter_min": 190.7831555951,
            "estimated_diameter_max": 426.6041048727
        }
    },
    "is_potentially_hazardous_asteroid": false,
    "close_approach_data": [
        {
            "close_approach_date": "2019-09-22",
            "close_approach_date_full": "2019-Sep-22 01:22",
            "epoch_date_close_approach": 1569115320000,
            "relative_velocity": {
                "kilometers_per_second": "8.2047301133",
                "kilometers_per_hour": "29537.0284080001",
                "miles_per_hour": "18353.1607905154"
            },
            "miss_distance": {
                "astronomical": "0.0320545383",
                "lunar": "12.4692153987",
                "kilometers": "4795290.653513421",
                "miles": "2979655.4436343698"
            },
            "orbiting_body": "Earth"
        }
    ],
    "orbital_data": {
        "orbit_id": "3",
        "orbit_determination_date": "2019-12-02 04:55:25",
        "first_observation_date": "2019-08-20",
        "last_observation_date": "2019-11-26",
        "data_arc_in_days": 98,
        "observations_used": 17,
        "orbit_uncertainty": "7",
        "minimum_orbit_intersection": ".00452218",
        "jupiter_tisserand_invariant": "3.432",
        "epoch_osculation": "2459000.5",
        "eccentricity": ".5609130452563413",
        "semi_major_axis": "2.211309092846139",
        "inclination": ".731458705670211",
        "ascending_node_longitude": "346.7369289074829",
        "orbital_period": "1201.081850646677",
        "perihelion_distance": ".9709569755747735",
        "perihelion_argument": "6.841419973273595",
        "aphelion_distance": "3.451661210117504",
        "perihelion_time": "2458744.483427776908",
        "mean_anomaly": "76.73579111256215",
        "mean_motion": ".299729780952207",
        "equinox": "J2000",
        "orbit_class": {
            "orbit_class_type": "APO",
            "orbit_class_description": "Near-Earth asteroid orbits which cross the Earth’s orbit similar to that of 1862 Apollo",
            "orbit_class_range": "a (semi-major axis) > 1.0 AU; q (perihelion) < 1.017 AU"
        }
    },
    "is_sentry_object": false
}